{
  "type": "FeatureCollection",
  "features": [
    {
      "type": "Feature",
      "properties": {
        "norad_id": 30750,
        "name": "FENGYUN 1C DEB",
        "group": "fengyun-1c-debris",
        "lat": 76.90527274355244,
        "lon": 32.74701756938941,
        "alt_km": 762.1957610300778,
        "timestamp": "2025-12-26T08:37:54.858855+00:00",
        "meta_object_name": "FENGYUN 1C DEB",
        "meta_object_id": "1999-025ATL",
        "meta_epoch": "2025-12-25T03:57:53.858016",
        "meta_mean_motion": 14.28705957,
        "meta_eccentricity": 0.00393351,
        "meta_inclination": 98.919,
        "meta_ra_of_asc_node": 73.9886,
        "meta_arg_of_pericenter": 63.9787,
        "meta_mean_anomaly": 356.2147,
        "meta_ephemeris_type": 0,
        "meta_classification_type": "U",
        "meta_norad_cat_id": 30750,
        "meta_element_set_no": 999,
        "meta_rev_at_epoch": 96959,
        "meta_bstar": 0.0017775736,
        "meta_mean_motion_dot": 4.465e-05,
        "meta_mean_motion_ddot": 0,
        "tle_line1": "1 30750U 99025ATL 25359.16520669  .00004465  00000+0  17776-2 0  9997",
        "tle_line2": "2 30750  98.9190  73.9886 0039335  63.9787 356.2147 14.28705957969591"
      },
      "geometry": {
        "type": "Point",
        "coordinates": [
          32.74701756938941,
          76.90527274355244
        ]
      }
    },
    {
      "type": "Feature",
      "properties": {
        "norad_id": 30751,
        "name": "FENGYUN 1C DEB",
        "group": "fengyun-1c-debris",
        "lat": -54.62897130113134,
        "lon": -133.22113820483662,
        "alt_km": 885.2768626914867,
        "timestamp": "2025-12-26T08:37:54.858866+00:00",
        "meta_object_name": "FENGYUN 1C DEB",
        "meta_object_id": "1999-025ATM",
        "meta_epoch": "2025-12-25T15:16:50.866176",
        "meta_mean_motion": 14.15269831,
        "meta_eccentricity": 0.005116,
        "meta_inclination": 98.854,
        "meta_ra_of_asc_node": 58.745,
        "meta_arg_of_pericenter": 59.7487,
        "meta_mean_anomaly": 94.3501,
        "meta_ephemeris_type": 0,
        "meta_classification_type": "U",
        "meta_norad_cat_id": 30751,
        "meta_element_set_no": 999,
        "meta_rev_at_epoch": 96458,
        "meta_bstar": 0.0014753,
        "meta_mean_motion_dot": 2.863e-05,
        "meta_mean_motion_ddot": 0,
        "tle_line1": "1 30751U 99025ATM 25359.63669984  .00002863  00000+0  14753-2 0  9996",
        "tle_line2": "2 30751  98.8540  58.7450 0051160  59.7487  94.3501 14.15269831964588"
      },
      "geometry": {
        "type": "Point",
        "coordinates": [
          -133.22113820483662,
          -54.62897130113134
        ]
      }
    },
    {
      "type": "Feature",
      "properties": {
        "norad_id": 30753,
        "name": "FENGYUN 1C DEB",
        "group": "fengyun-1c-debris",
        "lat": -81.17391931588787,
        "lon": 125.44619171410166,
        "alt_km": 829.2547280730296,
        "timestamp": "2025-12-26T08:37:54.858876+00:00",
        "meta_object_name": "FENGYUN 1C DEB",
        "meta_object_id": "1999-025ATP",
        "meta_epoch": "2025-12-25T14:21:10.192896",
        "meta_mean_motion": 14.12696074,
        "meta_eccentricity": 0.0055271,
        "meta_inclination": 98.8064,
        "meta_ra_of_asc_node": 37.9734,
        "meta_arg_of_pericenter": 317.9524,
        "meta_mean_anomaly": 41.7412,
        "meta_ephemeris_type": 0,
        "meta_classification_type": "U",
        "meta_norad_cat_id": 30753,
        "meta_element_set_no": 999,
        "meta_rev_at_epoch": 96533,
        "meta_bstar": 0.00098602,
        "meta_mean_motion_dot": 1.811e-05,
        "meta_mean_motion_ddot": 0,
        "tle_line1": "1 30753U 99025ATP 25359.59803464  .00001811  00000+0  98602-3 0  9994",
        "tle_line2": "2 30753  98.8064  37.9734 0055271 317.9524  41.7412 14.12696074965334"
      },
      "geometry": {
        "type": "Point",
        "coordinates": [
          125.44619171410166,
          -81.17391931588787
        ]
      }
    },
    {
      "type": "Feature",
      "properties": {
        "norad_id": 30755,
        "name": "FENGYUN 1C DEB",
        "group": "fengyun-1c-debris",
        "lat": 7.475835484949284,
        "lon": 175.64480207872913,
        "alt_km": 681.3299641001468,
        "timestamp": "2025-12-26T08:37:54.858886+00:00",
        "meta_object_name": "FENGYUN 1C DEB",
        "meta_object_id": "1999-025ATR",
        "meta_epoch": "2025-12-25T05:51:38.397024",
        "meta_mean_motion": 14.45005225,
        "meta_eccentricity": 0.0150938,
        "meta_inclination": 98.2597,
        "meta_ra_of_asc_node": 353.4675,
        "meta_arg_of_pericenter": 230.8028,
        "meta_mean_anomaly": 263.6293,
        "meta_ephemeris_type": 0,
        "meta_classification_type": "U",
        "meta_norad_cat_id": 30755,
        "meta_element_set_no": 999,
        "meta_rev_at_epoch": 98625,
        "meta_bstar": 0.0005143,
        "meta_mean_motion_dot": 2.015e-05,
        "meta_mean_motion_ddot": 0,
        "tle_line1": "1 30755U 99025ATR 25359.24419441  .00002015  00000+0  51430-3 0  9991",
        "tle_line2": "2 30755  98.2597 353.4675 0150938 230.8028 263.6293 14.45005225986253"
      },
      "geometry": {
        "type": "Point",
        "coordinates": [
          175.64480207872913,
          7.475835484949284
        ]
      }
    },
    {
      "type": "Feature",
      "properties": {
        "norad_id": 30756,
        "name": "FENGYUN 1C DEB",
        "group": "fengyun-1c-debris",
        "lat": -75.85556044463975,
        "lon": 106.86101082756683,
        "alt_km": 786.5189142124327,
        "timestamp": "2025-12-26T08:37:54.858895+00:00",
        "meta_object_name": "FENGYUN 1C DEB",
        "meta_object_id": "1999-025ATS",
        "meta_epoch": "2025-12-23T03:12:52.389216",
        "meta_mean_motion": 14.18333528,
        "meta_eccentricity": 0.00718958,
        "meta_inclination": 98.9903,
        "meta_ra_of_asc_node": 64.6763,
        "meta_arg_of_pericenter": 286.1019,
        "meta_mean_anomaly": 93.3581,
        "meta_ephemeris_type": 0,
        "meta_classification_type": "U",
        "meta_norad_cat_id": 30756,
        "meta_element_set_no": 999,
        "meta_rev_at_epoch": 96552,
        "meta_bstar": 0.0014178346,
        "meta_mean_motion_dot": 2.952e-05,
        "meta_mean_motion_ddot": 0,
        "tle_line1": "1 30756U 99025ATS 25357.13393969  .00002952  00000+0  14178-2 0  9991",
        "tle_line2": "2 30756  98.9903  64.6763 0071895 286.1019  93.3581 14.18333528965524"
      },
      "geometry": {
        "type": "Point",
        "coordinates": [
          106.86101082756683,
          -75.85556044463975
        ]
      }
    },
    {
      "type": "Feature",
      "properties": {
        "norad_id": 30758,
        "name": "FENGYUN 1C DEB",
        "group": "fengyun-1c-debris",
        "lat": -73.29119087231587,
        "lon": -92.69496275935387,
        "alt_km": 831.5210474099758,
        "timestamp": "2025-12-26T08:37:54.858928+00:00",
        "meta_object_name": "FENGYUN 1C DEB",
        "meta_object_id": "1999-025ATU",
        "meta_epoch": "2025-12-25T14:33:21.836736",
        "meta_mean_motion": 14.17159146,
        "meta_eccentricity": 0.0038486,
        "meta_inclination": 99.0185,
        "meta_ra_of_asc_node": 118.4838,
        "meta_arg_of_pericenter": 325.4827,
        "meta_mean_anomaly": 50.4557,
        "meta_ephemeris_type": 0,
        "meta_classification_type": "U",
        "meta_norad_cat_id": 30758,
        "meta_element_set_no": 999,
        "meta_rev_at_epoch": 96673,
        "meta_bstar": 0.0010127,
        "meta_mean_motion_dot": 2.01e-05,
        "meta_mean_motion_ddot": 0,
        "tle_line1": "1 30758U 99025ATU 25359.60650274  .00002010  00000+0  10127-2 0  9997",
        "tle_line2": "2 30758  99.0185 118.4838 0038486 325.4827  50.4557 14.17159146966736"
      },
      "geometry": {
        "type": "Point",
        "coordinates": [
          -92.69496275935387,
          -73.29119087231587
        ]
      }
    },
    {
      "type": "Feature",
      "properties": {
        "norad_id": 30759,
        "name": "FENGYUN 1C DEB",
        "group": "fengyun-1c-debris",
        "lat": -8.144418969939856,
        "lon": 110.89804909956871,
        "alt_km": 718.553186864091,
        "timestamp": "2025-12-26T08:37:54.858939+00:00",
        "meta_object_name": "FENGYUN 1C DEB",
        "meta_object_id": "1999-025ATV",
        "meta_epoch": "2025-12-25T18:31:18.207264",
        "meta_mean_motion": 14.54763055,
        "meta_eccentricity": 0.00085359,
        "meta_inclination": 99.2559,
        "meta_ra_of_asc_node": 108.9106,
        "meta_arg_of_pericenter": 131.9638,
        "meta_mean_anomaly": 22.6716,
        "meta_ephemeris_type": 0,
        "meta_classification_type": "U",
        "meta_norad_cat_id": 30759,
        "meta_element_set_no": 999,
        "meta_rev_at_epoch": 97844,
        "meta_bstar": 0.002512604,
        "meta_mean_motion_dot": 0.00010733,
        "meta_mean_motion_ddot": 0,
        "tle_line1": "1 30759U 99025ATV 25359.77173851  .00010733  00000+0  25126-2 0  9993",
        "tle_line2": "2 30759  99.2559 108.9106 0008535 131.9638  22.6716 14.54763055978448"
      },
      "geometry": {
        "type": "Point",
        "coordinates": [
          110.89804909956871,
          -8.144418969939856
        ]
      }
    }
  ]
}